{
  "norad_id": 56464,
  "name": "STARLINK-6043",
  "history": [
    {
      "epoch": "2026-03-28T18:04:54.738048Z",
      "apogee_km": 574.1151048387919,
      "perigee_km": 570.0075376309424,
      "latitude_deg": 4.625269948317805e-05,
      "longitude_deg": -1.0884904085835372,
      "height_km": 574.1662823890168,
      "semi_major_axis_km": 6950.198321234867,
      "eccentricity": 0.0002955,
      "inclination_deg": 69.9992,
      "raan_deg": 96.3089,
      "arg_perigee_deg": 279.0288,
      "mean_anomaly_deg": 81.0537,
      "mean_motion_rev_day": 14.98328244
    },
    {
      "epoch": "2026-03-29T05:17:51.229248Z",
      "apogee_km": 574.1318714946037,
      "perigee_km": 570.003449926141,
      "latitude_deg": 2.616084851221581e-06,
      "longitude_deg": -170.96239829219314,
      "height_km": 574.4048685858278,
      "semi_major_axis_km": 6950.204660710372,
      "eccentricity": 0.000297,
      "inclination_deg": 69.9989,
      "raan_deg": 95.131,
      "arg_perigee_deg": 272.5022,
      "mean_anomaly_deg": 87.5797,
      "mean_motion_rev_day": 14.98326194
    },
    {
      "epoch": "2026-03-30T02:07:35.835744Z",
      "apogee_km": 574.2124019147786,
      "perigee_km": 569.8935538625183,
      "latitude_deg": -2.1853720994912406e-05,
      "longitude_deg": -126.44258604196436,
      "height_km": 574.3945182218259,
      "semi_major_axis_km": 6950.189977888648,
      "eccentricity": 0.0003107,
      "inclination_deg": 69.9985,
      "raan_deg": 92.9421,
      "arg_perigee_deg": 272.2798,
      "mean_anomaly_deg": 87.8005,
      "mean_motion_rev_day": 14.98330942
    },
    {
      "epoch": "2026-03-30T06:55:59.998368Z",
      "apogee_km": 574.2068381375257,
      "perigee_km": 569.8961922166427,
      "latitude_deg": 1.1882493380477499e-05,
      "longitude_deg": 160.75434416159126,
      "height_km": 574.3986540742012,
      "semi_major_axis_km": 6950.188515177084,
      "eccentricity": 0.00031011,
      "inclination_deg": 69.9986,
      "raan_deg": 92.4371,
      "arg_perigee_deg": 272.1352,
      "mean_anomaly_deg": 87.9452,
      "mean_motion_rev_day": 14.98331415
    },
    {
      "epoch": "2026-03-30T10:08:16.096992Z",
      "apogee_km": 574.2026031263686,
      "perigee_km": 569.8982130607874,
      "latitude_deg": 5.581553295806451e-05,
      "longitude_deg": 112.21897963795077,
      "height_km": 574.3943930814436,
      "semi_major_axis_km": 6950.187408093578,
      "eccentricity": 0.00030966,
      "inclination_deg": 69.9986,
      "raan_deg": 92.1004,
      "arg_perigee_deg": 272.2221,
      "mean_anomaly_deg": 87.8584,
      "mean_motion_rev_day": 14.98331773
    },
    {
      "epoch": "2026-03-30T22:57:20.532960Z",
      "apogee_km": 574.0561057301948,
      "perigee_km": 570.0251417119889,
      "latitude_deg": -3.2609802424997514e-05,
      "longitude_deg": -81.92254735741115,
      "height_km": 574.3398601033946,
      "semi_major_axis_km": 6950.177623721092,
      "eccentricity": 0.00028999,
      "inclination_deg": 69.9986,
      "raan_deg": 90.7538,
      "arg_perigee_deg": 273.6413,
      "mean_anomaly_deg": 86.4414,
      "mean_motion_rev_day": 14.98334937
    },
    {
      "epoch": "2026-03-31T16:34:49.370016Z",
      "apogee_km": 574.2098526062819,
      "perigee_km": 569.903512600541,
      "latitude_deg": -3.130652145638963e-05,
      "longitude_deg": 11.131579971623557,
      "height_km": 574.3881873313654,
      "semi_major_axis_km": 6950.193682603412,
      "eccentricity": 0.0003098,
      "inclination_deg": 69.9986,
      "raan_deg": 88.9019,
      "arg_perigee_deg": 272.5536,
      "mean_anomaly_deg": 87.5268,
      "mean_motion_rev_day": 14.98329744
    },
    {
      "epoch": "2026-04-01T16:36:50.765472Z",
      "apogee_km": 573.9895790518885,
      "perigee_km": 570.1433364583672,
      "latitude_deg": 2.2800639286981983e-06,
      "longitude_deg": 7.114749170572857,
      "height_km": 574.4606994515855,
      "semi_major_axis_km": 6950.203457755128,
      "eccentricity": 0.0002767,
      "inclination_deg": 69.9997,
      "raan_deg": 86.3779,
      "arg_perigee_deg": 270.9817,
      "mean_anomaly_deg": 89.1025,
      "mean_motion_rev_day": 14.98326583
    },
    {
      "epoch": "2026-04-02T10:14:19.043520Z",
      "apogee_km": 574.1587910170483,
      "perigee_km": 569.9403057896297,
      "latitude_deg": 6.898706544004825e-05,
      "longitude_deg": 100.17083541059601,
      "height_km": 574.4482564442934,
      "semi_major_axis_km": 6950.186548403339,
      "eccentricity": 0.00030348,
      "inclination_deg": 69.9987,
      "raan_deg": 84.5256,
      "arg_perigee_deg": 270.7791,
      "mean_anomaly_deg": 89.3021,
      "mean_motion_rev_day": 14.98332051
    },
    {
      "epoch": "2026-04-03T08:40:11.372736Z",
      "apogee_km": 574.1984491136345,
      "perigee_km": 569.8750240390591,
      "latitude_deg": 3.695893530385335e-05,
      "longitude_deg": 120.42486903430554,
      "height_km": 574.4414762769736,
      "semi_major_axis_km": 6950.1737365763465,
      "eccentricity": 0.00031103,
      "inclination_deg": 69.9986,
      "raan_deg": 82.1689,
      "arg_perigee_deg": 270.6023,
      "mean_anomaly_deg": 89.478,
      "mean_motion_rev_day": 14.98336194
    },
    {
      "epoch": "2026-04-04T08:42:13.508640Z",
      "apogee_km": 574.1073394907216,
      "perigee_km": 570.0464685108927,
      "latitude_deg": -5.564423055690963e-05,
      "longitude_deg": 116.40429722465724,
      "height_km": 574.5942750262657,
      "semi_major_axis_km": 6950.213904000807,
      "eccentricity": 0.00029214,
      "inclination_deg": 69.9991,
      "raan_deg": 79.6443,
      "arg_perigee_deg": 267.4581,
      "mean_anomaly_deg": 92.6243,
      "mean_motion_rev_day": 14.98323205
    },
    {
      "epoch": "2026-04-05T08:44:14.348544Z",
      "apogee_km": 574.0889137112981,
      "perigee_km": 570.0341678825962,
      "latitude_deg": -1.3917475355702284e-05,
      "longitude_deg": 112.38838796238748,
      "height_km": 574.585454192176,
      "semi_major_axis_km": 6950.198540796947,
      "eccentricity": 0.0002917,
      "inclination_deg": 69.9991,
      "raan_deg": 77.1189,
      "arg_perigee_deg": 267.2691,
      "mean_anomaly_deg": 92.8134,
      "mean_motion_rev_day": 14.98328173
    },
    {
      "epoch": "2026-04-06T05:33:59.151168Z",
      "apogee_km": 574.1866564174525,
      "perigee_km": 569.9491164981791,
      "latitude_deg": 1.4273429509722473e-05,
      "longitude_deg": 156.90759762582792,
      "height_km": 574.5595372922261,
      "semi_major_axis_km": 6950.2048864578155,
      "eccentricity": 0.00030485,
      "inclination_deg": 69.9989,
      "raan_deg": 74.9302,
      "arg_perigee_deg": 268.263,
      "mean_anomaly_deg": 91.818,
      "mean_motion_rev_day": 14.98326121
    },
    {
      "epoch": "2026-04-07T05:36:00.117216Z",
      "apogee_km": 573.8180808429624,
      "perigee_km": 570.3108701743913,
      "latitude_deg": 2.1924989403279543e-05,
      "longitude_deg": 152.892847656519,
      "height_km": 574.7751591820685,
      "semi_major_axis_km": 6950.201475508677,
      "eccentricity": 0.00025231,
      "inclination_deg": 70.0004,
      "raan_deg": 72.4065,
      "arg_perigee_deg": 260.6902,
      "mean_anomaly_deg": 99.3972,
      "mean_motion_rev_day": 14.98327224
    },
    {
      "epoch": "2026-04-07T21:37:20.397792Z",
      "apogee_km": 573.7866405931018,
      "perigee_km": 570.3073784779281,
      "latitude_deg": -2.7969037497331255e-05,
      "longitude_deg": -89.78298724744293,
      "height_km": 574.7264965541436,
      "semi_major_axis_km": 6950.184009535515,
      "eccentricity": 0.0002503,
      "inclination_deg": 70.0004,
      "raan_deg": 70.7232,
      "arg_perigee_deg": 261.6544,
      "mean_anomaly_deg": 98.4331,
      "mean_motion_rev_day": 14.98332872
    },
    {
      "epoch": "2026-04-08T15:14:49.029216Z",
      "apogee_km": 574.1625574171057,
      "perigee_km": 569.9335088281523,
      "latitude_deg": 5.2188411467550776e-05,
      "longitude_deg": 3.2710244994286124,
      "height_km": 574.7946865897519,
      "semi_major_axis_km": 6950.185033122629,
      "eccentricity": 0.00030424,
      "inclination_deg": 69.9992,
      "raan_deg": 68.8703,
      "arg_perigee_deg": 261.3176,
      "mean_anomaly_deg": 98.7639,
      "mean_motion_rev_day": 14.98332541
    },
    {
      "epoch": "2026-04-09T15:16:49.775808Z",
      "apogee_km": 574.1221192294615,
      "perigee_km": 569.9645213618596,
      "latitude_deg": 6.600340354531248e-05,
      "longitude_deg": -0.7442067227848373,
      "height_km": 574.4968193535294,
      "semi_major_axis_km": 6950.18032029566,
      "eccentricity": 0.0002991,
      "inclination_deg": 69.9992,
      "raan_deg": 66.3452,
      "arg_perigee_deg": 269.2804,
      "mean_anomaly_deg": 90.8013,
      "mean_motion_rev_day": 14.98334065
    },
    {
      "epoch": "2026-04-10T07:18:10.101312Z",
      "apogee_km": 574.1058868172804,
      "perigee_km": 569.9677533248105,
      "latitude_deg": 9.447045390526745e-06,
      "longitude_deg": 116.57986842258099,
      "height_km": 574.4869185033536,
      "semi_major_axis_km": 6950.173820071045,
      "eccentricity": 0.0002977,
      "inclination_deg": 69.9992,
      "raan_deg": 64.662,
      "arg_perigee_deg": 269.371,
      "mean_anomaly_deg": 90.7108,
      "mean_motion_rev_day": 14.98336167
    },
    {
      "epoch": "2026-04-11T07:20:11.735232Z",
      "apogee_km": 574.1182021043105,
      "perigee_km": 570.0161915873314,
      "latitude_deg": 1.4294590900610766e-05,
      "longitude_deg": 112.5610274742955,
      "height_km": 574.4956582510712,
      "semi_major_axis_km": 6950.204196845821,
      "eccentricity": 0.0002951,
      "inclination_deg": 69.9992,
      "raan_deg": 62.137,
      "arg_perigee_deg": 269.9688,
      "mean_anomaly_deg": 90.1133,
      "mean_motion_rev_day": 14.98326344
    }
  ]
}